[Satellite]
VERSION=1.1
NAME=FLOCK 3P-50
NICKNAME=FLOCK 3P-50
TLE1=1 42029U 17008CK  17186.28240197  .00001664  00000-0  74620-4 0  9999
TLE2=2 42029  97.4954 247.6257 0009404 140.7151 219.4769 15.22603912 20467
